STARLINK-5669           
1 55459U 23015L   23048.16561066  .00051001  00000+0  38954-3 0  9995
2 55459  43.0002 299.3160 0002023 258.7091 101.3549 15.71382042  2499
STARLINK-5678           
1 55460U 23015M   23048.16550502  .00076990  00000+0  58380-3 0  9999
2 55460  42.9995 299.3168 0002315 267.2625  92.7978 15.71408478  2491
STARLINK-5646           
1 55461U 23015N   23048.16571760  .00074087  00000+0  56233-3 0  9999
2 55461  43.0002 299.3178 0002054 272.9824  87.0809 15.71399715  2491
STARLINK-5673           
1 55462U 23015P   23048.16508423  .00050428  00000+0  38517-3 0  9994
2 55462  42.9997 299.3128 0002038 257.1646 102.8994 15.71385334  2490
STARLINK-5677           
1 55463U 23015Q   23048.16529301  .00040762  00000+0  31239-3 0  9997
2 55463  42.9997 299.3137 0002348 257.0930 102.9675 15.71382214  2491
STARLINK-5676           
1 55464U 23015R   23048.03765368  .00050551  00000+0  38647-3 0  9996
2 55464  42.9999 300.0753 0001270 321.7185  38.3592 15.71363661  2475
STARLINK-5674           
1 55465U 23015S   23048.16497892  .00073300  00000+0  55630-3 0  9993
2 55465  42.9997 299.3116 0002234 262.2410  97.8204 15.71405624  2496
STARLINK-5628           
1 55466U 23015T   23048.16434995  .00059087  00000+0  45044-3 0  9993
2 55466  42.9997 299.3067 0002232 250.6407 109.4220 15.71374946  2497
STARLINK-5679           
1 55467U 23015U   23047.08464453  .00115555  00000+0  87150-3 0  9993
2 55467  43.0003 305.8304 0001625 273.6208  86.4474 15.71381642  2322
STARLINK-5672           
1 55468U 23015V   23048.16466468  .00094965  00000+0  71829-3 0  9999
2 55468  43.0001 299.3092 0002248 243.6743 116.3894 15.71390751  2493
STARLINK-5681           
1 55469U 23015W   23048.16487547  .00073175  00000+0  55566-3 0  9991
2 55469  43.0003 299.3103 0001904 251.0628 109.0034 15.71393566  2494
STARLINK-5708           
1 55470U 23015X   23048.16455830  .00067242  00000+0  51134-3 0  9998
2 55470  42.9995 299.3082 0002284 244.9075 115.1556 15.71388736  2499
STARLINK-5711           
1 55471U 23015Y   23048.16445607  .00066750  00000+0  50749-3 0  9994
2 55471  43.0004 299.3072 0002129 265.9581  94.1044 15.71396616  2499
STARLINK-5705           
1 55472U 23015Z   23047.08347946  .00055903  00000+0  42656-3 0  9998
2 55472  43.0005 305.8217 0002183 285.4685  74.5942 15.71372702  2328
STARLINK-5687           
1 55473U 23015AA  23047.08368838  .00073233  00000+0  55649-3 0  9994
2 55473  43.0001 305.8231 0002215 283.9779  76.0842 15.71376167  2329
STARLINK-5689           
1 55474U 23015AB  23047.08316358  .00063135  00000+0  48079-3 0  9994
2 55474  43.0001 305.8185 0001846 275.6976  84.3681 15.71377989  2320
STARLINK-5650           
1 55475U 23015AC  23047.08358525  .00034879  00000+0  26830-3 0  9991
2 55475  43.0003 305.8220 0001829 277.3682  82.6978 15.71355745  2323
STARLINK-5596           
1 55476U 23015AD  23047.58659995  .00036218  00000+0  17315-3 0  9999
2 55476  42.9808 301.8027 0012286 266.1728  93.7738 15.81989270  2416
STARLINK-5685           
1 55477U 23015AE  23047.08326841  .00042735  00000+0  32734-3 0  9999
2 55477  43.0005 305.8182 0001796 261.0978  98.9686 15.71378196  2326
STARLINK-5691           
1 55478U 23015AF  23047.08253230  .00047320  00000+0  36202-3 0  9990
2 55478  42.9999 305.8138 0001663 289.2649  70.8038 15.71370295  2320
STARLINK-5688           
1 55479U 23015AG  23047.08337279  .00062641  00000+0  47707-3 0  9992
2 55479  43.0000 305.8207 0002066 274.0077  86.0555 15.71377988  2327
STARLINK-5690           
1 55480U 23015AH  23047.08264139  .00040268  00000+0  30902-3 0  9998
2 55480  42.9999 305.8159 0001248 284.6166  75.4563 15.71356638  2327
STARLINK-5694           
1 55481U 23015AJ  23047.08295260  .00081179  00000+0  61591-3 0  9992
2 55481  43.0000 305.8173 0002113 287.1217  72.9419 15.71376434  2324
STARLINK-5693           
1 55482U 23015AK  23047.08190328  .00040182  00000+0  30838-3 0  9991
2 55482  42.9995 305.8097 0001851 284.5100  75.5562 15.71355549  2323
STARLINK-5692           
1 55483U 23015AL  23047.08242646  .00072474  00000+0  55077-3 0  9994
2 55483  43.0005 305.8131 0002257 262.8414  97.2198 15.71377767  2327
STARLINK-5696           
1 55484U 23015AM  23047.08211133  .00065479  00000+0  49858-3 0  9999
2 55484  43.0004 305.8106 0002430 269.3921  90.6668 15.71366698  2327
STARLINK-5695           
1 55485U 23015AN  23047.08274232  .00076764  00000+0  58290-3 0  9998
2 55485  43.0002 305.8167 0001959 280.5222  79.5425 15.71377175  2326
STARLINK-5704           
1 55486U 23015AP  23047.08221592  .00059020  00000+0  44994-3 0  9992
2 55486  43.0000 305.8119 0001807 279.9207  80.1457 15.71375814  2320
STARLINK-5701           
1 55487U 23015AQ  23047.08284817  .00049320  00000+0  37704-3 0  9995
2 55487  42.9999 305.8160 0001861 297.0644  63.0034 15.71372753  2328
STARLINK-5706           
1 55488U 23015AR  23047.08158621  .00007382  00000+0  59671-4 0  9999
2 55488  42.9997 305.8076 0001916 289.3059  70.7602 15.71361600  2323
STARLINK-5371           
1 55489U 23015AS  23047.01875918  .00075642  00000+0  57433-3 0  9995
2 55489  43.0001 306.1953 0001747 271.3868  88.6800 15.71384871  2313
STARLINK-5373           
1 55490U 23015AT  23048.60675712  .00086910  00000+0  64806-3 0  9995
2 55490  42.9994 296.6010 0003566 270.8347  89.2112 15.71757565  2371
STARLINK-5364           
1 55491U 23015AU  23046.76169337  .00445067  00000+0  31727-2 0  9999
2 55491  42.9866 307.6983 0001648 303.0122  57.0588 15.71701471  2275
STARLINK-5013           
1 55492U 23015AV  23046.95456640  .00059973  00000+0  45693-3 0  9992
2 55492  43.0000 306.5736 0001856 273.2079  86.8576 15.71384323  2306
STARLINK-5362           
1 55493U 23015AW  23046.76366787  .00087151  00000+0  65925-3 0  9993
2 55493  43.0009 307.7215 0001970 281.7466  78.3181 15.71421500  2275
STARLINK-5344           
1 55494U 23015AX  23047.01770863  .00071227  00000+0  54130-3 0  9990
2 55494  43.0004 306.1876 0002091 259.0094 101.0539 15.71383825  2310
STARLINK-5100           
1 55495U 23015AY  23047.01823076  .00104127  00000+0  78579-3 0  9995
2 55495  43.0006 306.1907 0002707 288.8954  71.1621 15.71407755  2315
STARLINK-5139           
1 55496U 23015AZ  23047.08095331  .00015023  00000+0  11771-3 0  9995
2 55496  43.0007 305.7996 0002057 273.2483  86.8150 15.71373608  2323
STARLINK-5363           
1 55497U 23015BA  23047.01760460  .00013109  00000+0  10326-3 0  9999
2 55497  43.0002 306.1856 0001960 275.4301  84.6344 15.71353904  2311
STARLINK-5365           
1 55498U 23015BB  23047.08084827  .00010747  00000+0  85237-4 0  9992
2 55498  42.9999 305.7993 0001871 245.6230 114.4442 15.71371474  2327
STARLINK-5366           
1 55499U 23015BC  23047.08064055  .00015940  00000+0  12470-3 0  9992
2 55499  42.9997 305.7980 0001788 291.1755  68.8922 15.71367343  3075
STARLINK-5141           
1 55500U 23015BD  23047.01749710  .00119513  00000+0  89982-3 0  9999
2 55500  43.0001 306.1872 0002084 288.0308  72.0332 15.71406857  2312
STARLINK-5367           
1 55501U 23015BE  23046.76293251  .00040057  00000+0  30691-3 0  9994
2 55501  43.0002 307.7148 0002003 261.7305  98.3336 15.71395999  2277
FALCON 9 DEB            
1 55502U 23015BF  23048.40696331  .00263092  00000+0  10497-2 0  9991
2 55502  42.9901 296.7833 0015077 259.9851  99.9321 15.84931401  2541
FALCON 9 DEB            
1 55503U 23015BG  23048.14984156  .00309136  00000+0  11751-2 0  9992
2 55503  42.9872 298.2907 0017592 254.8391 105.0536 15.85755599  2501
FALCON 9 DEB            
1 55504U 23015BH  23048.39142561  .00300415  39955-4  11094-2 0  9993
2 55504  42.9830 296.6446 0018813 270.3144  89.5573 15.87126045  2543
FALCON 9 DEB            
1 55505U 23015BJ  23048.39012380  .00252069  30379-4  93908-3 0  9996
2 55505  42.9815 296.6311 0020602 265.4644  94.3876 15.86918937  2545
ELEKTRO-L 4             
1 55506U 23016A   23048.30374443 -.00000037  00000+0  00000+0 0  9997
2 55506   0.5382 285.1175 0014855 236.2546 239.0900  1.01513730   128
BLOCK DM-SL R/B         
1 55507U 23016B   23048.00153775 -.00000083  00000+0  00000+0 0  9999
2 55507   0.4111 276.0021 0096378  29.4557  53.6168  1.03218999   128
AMAZONAS NEXUS          
1 55508U 23017A   23040.08992635 -.00000333  00000+0  00000+0 0  9995
2 55508  25.0543 351.1512 8150843 178.8279 187.3709  1.25612863    24
FALCON 9 R/B            
1 55509U 23017B   23046.46466141  .00000835  00000+0  37623-2 0  9992
2 55509  25.0357 349.9554 8154272 180.4611 177.7895  1.25150488   106
PROGRESS-MS 22          
1 55560U 23018A   23048.53220763  .00023244  00000+0  41134-3 0  9990
2 55560  51.6392 201.1978 0009372   0.3823 127.4793 15.50147905383233
EOS-7                   
1 55562U 23019A   23048.32624319  .00036517  00000+0  85657-3 0  9990
2 55562  37.1846  69.6399 0008026  24.2375 335.8760 15.41123663  1099
AZAADISAT-2             
1 55563U 23019B   23048.51755509  .00083238  00000+0  18692-2 0  9994
2 55563  37.1853  68.3936 0007847  43.8602 316.2779 15.42188323  1134
JANUS-1                 
1 55564U 23019C   23048.51513322  .00041534  00000+0  93363-3 0  9992
2 55564  37.1838  68.3717 0011526  46.7275 313.4445 15.42329587  1130
SSLV R/B                
1 55565U 23019D   23048.48779127  .00038087  00000+0  68458-3 0  9992
2 55565  37.1846  68.1391 0039553  41.5068 318.8687 15.48041761  1126
VTM R/B                 
1 55566U 23019E   23048.47717819  .00023842  00000+0  38999-3 0  9992
2 55566  37.9005  69.5642 0050223  69.2194 291.3951 15.50289527  1126
2023-019F               
1 55567U 23019F   23047.52029487  .00048227  00000+0  86726-3 0  9990
2 55567  37.1846  74.2845 0039770  32.8387 327.4835 15.47959978   978
2023-019G               
1 55568U 23019G   23048.46997595  .00332327  00000+0  45899-2 0  9991
2 55568  37.1949  67.9982 0044706  47.0968 313.3535 15.54001799  1128
